{"type": "FeatureCollection", "features": [ {"type": "Feature", "properties": {"norad_id": 31258, "name": "FENGYUN 1C DEB", "group": "fengyun-1c-debris", "lat": -34.575258235183334, "lon": -51.55729938082526, "alt_km": 535.2134105236482, "timestamp": "2025-12-11T20:41:15.362248+00:00", "meta": {"OBJECT_NAME": "FENGYUN 1C DEB", "OBJECT_ID": "1999-025BMQ", "EPOCH": "2025-12-11T08:45:27.950976", "MEAN_MOTION": 15.12065681, "ECCENTRICITY": 0.00048639, "INCLINATION": 98.8472, "RA_OF_ASC_NODE": 134.0301, "ARG_OF_PERICENTER": 307.9809, "MEAN_ANOMALY": 82.5742, "EPHEMERIS_TYPE": 0, "CLASSIFICATION_TYPE": "U", "NORAD_CAT_ID": 31258, "ELEMENT_SET_NO": 999, "REV_AT_EPOCH": 97090, "BSTAR": 0.019210559, "MEAN_MOTION_DOT": 0.00346581, "MEAN_MOTION_DDOT": 0}, "tle": {"line1": "1 31258U 99025BMQ 25345.36490684  .00346581  00000+0  19211-1 0  9994", "line2": "2 31258  98.8472 134.0301 0004863 307.9809  82.5742 15.12065681970906"}}, "geometry": {"type": "Point", "coordinates": [-51.55729938082526, -34.575258235183334]}}, {"type": "Feature", "properties": {"norad_id": 31259, "name": "FENGYUN 1C DEB", "group": "fengyun-1c-debris", "lat": 66.00366514922047, "lon": 44.170645127279, "alt_km": 866.4982407948828, "timestamp": "2025-12-11T20:41:15.362260+00:00", "meta": {"OBJECT_NAME": "FENGYUN 1C DEB", "OBJECT_ID": "1999-025BMR", "EPOCH": "2025-12-10T20:55:32.869344", "MEAN_MOTION": 14.15005449, "ECCENTRICITY": 0.0065781, "INCLINATION": 99.0092, "RA_OF_ASC_NODE": 64.0502, "ARG_OF_PERICENTER": 201.089, "MEAN_ANOMALY": 226.5155, "EPHEMERIS_TYPE": 0, "CLASSIFICATION_TYPE": "U", "NORAD_CAT_ID": 31259, "ELEMENT_SET_NO": 999, "REV_AT_EPOCH": 95543, "BSTAR": 0.0027446, "MEAN_MOTION_DOT": 5.383e-05, "MEAN_MOTION_DDOT": 0}, "tle": {"line1": "1 31259U 99025BMR 25344.87190821  .00005383  00000+0  27446-2 0  9992", "line2": "2 31259  99.0092  64.0502 0065781 201.0890 226.5155 14.15005449955430"}}, "geometry": {"type": "Point", "coordinates": [44.170645127279, 66.00366514922047]}}, {"type": "Feature", "properties": {"norad_id": 31260, "name": "FENGYUN 1C DEB", "group": "fengyun-1c-debris", "lat": 79.67876958347156, "lon": -177.22031041036672, "alt_km": 792.0058862597243, "timestamp": "2025-12-11T20:41:15.362270+00:00", "meta": {"OBJECT_NAME": "FENGYUN 1C DEB", "OBJECT_ID": "1999-025BMS", "EPOCH": "2025-12-10T16:00:46.162080", "MEAN_MOTION": 14.36408342, "ECCENTRICITY": 0.0047191, "INCLINATION": 98.9558, "RA_OF_ASC_NODE": 241.526, "ARG_OF_PERICENTER": 298.7563, "MEAN_ANOMALY": 91.017, "EPHEMERIS_TYPE": 0, "CLASSIFICATION_TYPE": "U", "NORAD_CAT_ID": 31260, "ELEMENT_SET_NO": 999, "REV_AT_EPOCH": 97164, "BSTAR": 0.0017132, "MEAN_MOTION_DOT": 5.038e-05, "MEAN_MOTION_DDOT": 0}, "tle": {"line1": "1 31260U 99025BMS 25344.66720095  .00005038  00000+0  17132-2 0  9991", "line2": "2 31260  98.9558 241.5260 0047191 298.7563  91.0170 14.36408342971640"}}, "geometry": {"type": "Point", "coordinates": [-177.22031041036672, 79.67876958347156]}}, {"type": "Feature", "properties": {"norad_id": 31261, "name": "FENGYUN 1C DEB", "group": "fengyun-1c-debris", "lat": 80.82419094906088, "lon": -140.15865950085947, "alt_km": 780.782260162684, "timestamp": "2025-12-11T20:41:15.362280+00:00", "meta": {"OBJECT_NAME": "FENGYUN 1C DEB", "OBJECT_ID": "1999-025BMT", "EPOCH": "2025-12-10T07:35:22.126848", "MEAN_MOTION": 14.40058842, "ECCENTRICITY": 0.00499763, "INCLINATION": 99.0156, "RA_OF_ASC_NODE": 297.5987, "ARG_OF_PERICENTER": 240.2518, "MEAN_ANOMALY": 119.3692, "EPHEMERIS_TYPE": 0, "CLASSIFICATION_TYPE": "U", "NORAD_CAT_ID": 31261, "ELEMENT_SET_NO": 999, "REV_AT_EPOCH": 97315, "BSTAR": 0.0016518644, "MEAN_MOTION_DOT": 5.241e-05, "MEAN_MOTION_DDOT": 0}, "tle": {"line1": "1 31261U 99025BMT 25344.31622832  .00005241  00000+0  16519-2 0  9998", "line2": "2 31261  99.0156 297.5987 0049976 240.2518 119.3692 14.40058842973151"}}, "geometry": {"type": "Point", "coordinates": [-140.15865950085947, 80.82419094906088]}}, {"type": "Feature", "properties": {"norad_id": 31262, "name": "FENGYUN 1C DEB", "group": "fengyun-1c-debris", "lat": 2.946650085287797, "lon": -110.22512078733835, "alt_km": 824.4145639606859, "timestamp": "2025-12-11T20:41:15.362290+00:00", "meta": {"OBJECT_NAME": "FENGYUN 1C DEB", "OBJECT_ID": "1999-025BMU", "EPOCH": "2025-12-10T17:28:24.445344", "MEAN_MOTION": 14.18162638, "ECCENTRICITY": 0.00553543, "INCLINATION": 99.003, "RA_OF_ASC_NODE": 68.1576, "ARG_OF_PERICENTER": 103.7749, "MEAN_ANOMALY": 46.5995, "EPHEMERIS_TYPE": 0, "CLASSIFICATION_TYPE": "U", "NORAD_CAT_ID": 31262, "ELEMENT_SET_NO": 999, "REV_AT_EPOCH": 95680, "BSTAR": 0.0026286567, "MEAN_MOTION_DOT": 5.44e-05, "MEAN_MOTION_DDOT": 0}, "tle": {"line1": "1 31262U 99025BMU 25344.72806071  .00005440  00000+0  26287-2 0  9997", "line2": "2 31262  99.0030  68.1576 0055354 103.7749  46.5995 14.18162638956809"}}, "geometry": {"type": "Point", "coordinates": [-110.22512078733835, 2.946650085287797]}}, {"type": "Feature", "properties": {"norad_id": 31263, "name": "FENGYUN 1C DEB", "group": "fengyun-1c-debris", "lat": 48.13772751962455, "lon": 100.00525749954556, "alt_km": 396.8526179298633, "timestamp": "2025-12-11T20:41:15.362300+00:00", "meta": {"OBJECT_NAME": "FENGYUN 1C DEB", "OBJECT_ID": "1999-025BMV", "EPOCH": "2025-12-10T05:20:59.404128", "MEAN_MOTION": 15.46423657, "ECCENTRICITY": 0.0022969, "INCLINATION": 98.9891, "RA_OF_ASC_NODE": 267.7937, "ARG_OF_PERICENTER": 120.0043, "MEAN_ANOMALY": 240.3485, "EPHEMERIS_TYPE": 0, "CLASSIFICATION_TYPE": "U", "NORAD_CAT_ID": 31263, "ELEMENT_SET_NO": 999, "REV_AT_EPOCH": 97127, "BSTAR": 0.022467, "MEAN_MOTION_DOT": 0.01232313, "MEAN_MOTION_DDOT": 0}, "tle": {"line1": "1 31263U 99025BMV 25344.22290977  .01232313  00000+0  22467-1 0  9992", "line2": "2 31263  98.9891 267.7937 0022969 120.0043 240.3485 15.46423657971275"}}, "geometry": {"type": "Point", "coordinates": [100.00525749954556, 48.13772751962455]}}, {"type": "Feature", "properties": {"norad_id": 31264, "name": "FENGYUN 1C DEB", "group": "fengyun-1c-debris", "lat": 31.6650485254393, "lon": 68.50350365111608, "alt_km": 828.8783085125233, "timestamp": "2025-12-11T20:41:15.362312+00:00", "meta": {"OBJECT_NAME": "FENGYUN 1C DEB", "OBJECT_ID": "1999-025BMW", "EPOCH": "2025-12-11T12:22:00.509088", "MEAN_MOTION": 14.18586647, "ECCENTRICITY": 0.00011316, "INCLINATION": 99.1143, "RA_OF_ASC_NODE": 242.4652, "ARG_OF_PERICENTER": 9.8898, "MEAN_ANOMALY": 168.3076, "EPHEMERIS_TYPE": 0, "CLASSIFICATION_TYPE": "U", "NORAD_CAT_ID": 31264, "ELEMENT_SET_NO": 999, "REV_AT_EPOCH": 96411, "BSTAR": 0.00089977436, "MEAN_MOTION_DOT": 1.816e-05, "MEAN_MOTION_DDOT": 0}, "tle": {"line1": "1 31264U 99025BMW 25345.51528367  .00001816  00000+0  89977-3 0  9995", "line2": "2 31264  99.1143 242.4652 0001131   9.8898 168.3076 14.18586647964110"}}, "geometry": {"type": "Point", "coordinates": [68.50350365111608, 31.6650485254393]}}, {"type": "Feature", "properties": {"norad_id": 31266, "name": "FENGYUN 1C DEB", "group": "fengyun-1c-debris", "lat": 13.1134128940126, "lon": 151.02906036822844, "alt_km": 864.5093588554955, "timestamp": "2025-12-11T20:41:15.362322+00:00", "meta": {"OBJECT_NAME": "FENGYUN 1C DEB", "OBJECT_ID": "1999-025BMY", "EPOCH": "2025-12-11T10:29:28.381920", "MEAN_MOTION": 14.22331914, "ECCENTRICITY": 0.01296841, "INCLINATION": 99.2572, "RA_OF_ASC_NODE": 328.4057, "ARG_OF_PERICENTER": 287.9735, "MEAN_ANOMALY": 225.7277, "EPHEMERIS_TYPE": 0, "CLASSIFICATION_TYPE": "U", "NORAD_CAT_ID": 31266, "ELEMENT_SET_NO": 999, "REV_AT_EPOCH": 97187, "BSTAR": 0.00056385535, "MEAN_MOTION_DOT": 1.317e-05, "MEAN_MOTION_DDOT": 0}, "tle": {"line1": "1 31266U 99025BMY 25345.43713405  .00001317  00000+0  56386-3 0  9991", "line2": "2 31266  99.2572 328.4057 0129684 287.9735 225.7277 14.22331914971878"}}, "geometry": {"type": "Point", "coordinates": [151.02906036822844, 13.1134128940126]}}, {"type": "Feature", "properties": {"norad_id": 31268, "name": "FENGYUN 1C DEB", "group": "fengyun-1c-debris", "lat": 2.515831135729936, "lon": 27.70706911617207, "alt_km": 909.976148350448, "timestamp": "2025-12-11T20:41:15.362334+00:00", "meta": {"OBJECT_NAME": "FENGYUN 1C DEB", "OBJECT_ID": "1999-025BNA", "EPOCH": "2025-12-11T01:53:37.100832", "MEAN_MOTION": 14.06406116, "ECCENTRICITY": 0.00493614, "INCLINATION": 98.7549, "RA_OF_ASC_NODE": 27.3376, "ARG_OF_PERICENTER": 188.3017, "MEAN_ANOMALY": 171.734, "EPHEMERIS_TYPE": 0, "CLASSIFICATION_TYPE": "U", "NORAD_CAT_ID": 31268, "ELEMENT_SET_NO": 999, "REV_AT_EPOCH": 62009, "BSTAR": 0.00083019137, "MEAN_MOTION_DOT": 1.344e-05, "MEAN_MOTION_DDOT": 0}, "tle": {"line1": "1 31268U 99025BNA 25345.07890163  .00001344  00000+0  83019-3 0  9993", "line2": "2 31268  98.7549  27.3376 0049361 188.3017 171.7340 14.06406116620092"}}, "geometry": {"type": "Point", "coordinates": [27.70706911617207, 2.515831135729936]}}, {"type": "Feature", "properties": {"norad_id": 31269, "name": "FENGYUN 1C DEB", "group": "fengyun-1c-debris", "lat": -2.179269490903825, "lon": -135.72059362105085, "alt_km": 714.9660334380405, "timestamp": "2025-12-11T20:41:15.362344+00:00", "meta": {"OBJECT_NAME": "FENGYUN 1C DEB", "OBJECT_ID": "1999-025BNB", "EPOCH": "2025-12-10T14:54:02.278080", "MEAN_MOTION": 14.43627019, "ECCENTRICITY": 0.0240476, "INCLINATION": 98.1796, "RA_OF_ASC_NODE": 222.7719, "ARG_OF_PERICENTER": 282.0203, "MEAN_ANOMALY": 106.6873, "EPHEMERIS_TYPE": 0, "CLASSIFICATION_TYPE": "U", "NORAD_CAT_ID": 31269, "ELEMENT_SET_NO": 999, "REV_AT_EPOCH": 96456, "BSTAR": 0.0035411, "MEAN_MOTION_DOT": 0.0001707, "MEAN_MOTION_DDOT": 0}, "tle": {"line1": "1 31269U 99025BNB 25344.62085970  .00017070  00000+0  35411-2 0  9991", "line2": "2 31269  98.1796 222.7719 0240476 282.0203 106.6873 14.43627019964561"}}, "geometry": {"type": "Point", "coordinates": [-135.72059362105085, -2.179269490903825]}}]}